{
    "links": {
        "self": "http://www.neowsapp.com/rest/v1/neo/3771791?api_key=iIulBulltgU6a56xZRHN4H3l9WmuAYTsLGpBGhQ2"
    },
    "id": "3771791",
    "neo_reference_id": "3771791",
    "name": "(2017 FO63)",
    "designation": "2017 FO63",
    "nasa_jpl_url": "http://ssd.jpl.nasa.gov/sbdb.cgi?sstr=3771791",
    "absolute_magnitude_h": 23.3,
    "estimated_diameter": {
        "kilometers": {
            "estimated_diameter_min": 0.058150704,
            "estimated_diameter_max": 0.130028927
        },
        "meters": {
            "estimated_diameter_min": 58.1507039646,
            "estimated_diameter_max": 130.0289270043
        },
        "miles": {
            "estimated_diameter_min": 0.0361331611,
            "estimated_diameter_max": 0.0807962044
        },
        "feet": {
            "estimated_diameter_min": 190.7831555951,
            "estimated_diameter_max": 426.6041048727
        }
    },
    "is_potentially_hazardous_asteroid": false,
    "close_approach_data": [
        {
            "close_approach_date": "2017-03-28",
            "close_approach_date_full": "2017-Mar-28 23:36",
            "epoch_date_close_approach": 1490744160000,
            "relative_velocity": {
                "kilometers_per_second": "27.8250163433",
                "kilometers_per_hour": "100170.0588360449",
                "miles_per_hour": "62241.7790584302"
            },
            "miss_distance": {
                "astronomical": "0.0557721549",
                "lunar": "21.6953682561",
                "kilometers": "8343395.578350063",
                "miles": "5184345.6110863494"
            },
            "orbiting_body": "Earth"
        },
        {
            "close_approach_date": "2017-04-29",
            "close_approach_date_full": "2017-Apr-29 14:29",
            "epoch_date_close_approach": 1493476140000,
            "relative_velocity": {
                "kilometers_per_second": "34.1107422089",
                "kilometers_per_hour": "122798.6719521156",
                "miles_per_hour": "76302.3192471354"
            },
            "miss_distance": {
                "astronomical": "0.0244096477",
                "lunar": "9.4953529553",
                "kilometers": "3651631.303370399",
                "miles": "2269018.4761295462"
            },
            "orbiting_body": "Merc"
        },
        {
            "close_approach_date": "2026-04-07",
            "close_approach_date_full": "2026-Apr-07 17:35",
            "epoch_date_close_approach": 1775583300000,
            "relative_velocity": {
                "kilometers_per_second": "7.4865665605",
                "kilometers_per_hour": "26951.639617686",
                "miles_per_hour": "16746.7007391116"
            },
            "miss_distance": {
                "astronomical": "0.9355214465",
                "lunar": "363.9178426885",
                "kilometers": "139952015.735718955",
                "miles": "86962150.089693379"
            },
            "orbiting_body": "Juptr"
        }
    ],
    "orbital_data": {
        "orbit_id": "11",
        "orbit_determination_date": "2017-04-22 06:18:10",
        "first_observation_date": "2017-03-21",
        "last_observation_date": "2017-03-31",
        "data_arc_in_days": 10,
        "observations_used": 60,
        "orbit_uncertainty": "8",
        "minimum_orbit_intersection": ".0155503",
        "jupiter_tisserand_invariant": "2.922",
        "epoch_osculation": "2457838.5",
        "eccentricity": ".8432656847807795",
        "semi_major_axis": "2.367467749669066",
        "inclination": "2.112140594268121",
        "ascending_node_longitude": "254.6561497547441",
        "orbital_period": "1330.529580596944",
        "perihelion_distance": ".3710634365479702",
        "perihelion_argument": "43.34114984229912",
        "aphelion_distance": "4.363872062790162",
        "perihelion_time": "2457884.527542143855",
        "mean_anomaly": "347.5463759592976",
        "mean_motion": ".2705689563387876",
        "equinox": "J2000",
        "orbit_class": {
            "orbit_class_type": "APO",
            "orbit_class_description": "Near-Earth asteroid orbits which cross the Earth’s orbit similar to that of 1862 Apollo",
            "orbit_class_range": "a (semi-major axis) > 1.0 AU; q (perihelion) < 1.017 AU"
        }
    },
    "is_sentry_object": false
}